STARLINK-1066
1 14954C 20001AS  21326.13734468  .00002196  00000-0  14714-3 0  3261
2 14954  53.0512 148.1272 0001917  76.4810 316.0157 15.06400403    10
